[{"OBJECT_NAME":"STARLINK-31205","OBJECT_ID":"2024-038Z","EPOCH":"2026-03-09T22:20:46.705632","MEAN_MOTION":15.27579241,"ECCENTRICITY":0.00014319,"INCLINATION":43.0066,"RA_OF_ASC_NODE":22.331,"ARG_OF_PERICENTER":273.5775,"MEAN_ANOMALY":86.4913,"EPHEMERIS_TYPE":0,"CLASSIFICATION_TYPE":"U","NORAD_CAT_ID":59046,"ELEMENT_SET_NO":999,"REV_AT_EPOCH":11483,"BSTAR":-8.5618005e-5,"MEAN_MOTION_DOT":-2.617e-5,"MEAN_MOTION_DDOT":0},{"OBJECT_NAME":"TEVEL2-7","OBJECT_ID":"2025-052AE","EPOCH":"2026-03-09T15:52:01.887744","MEAN_MOTION":15.28414096,"ECCENTRICITY":0.00081048,"INCLINATION":97.4054,"RA_OF_ASC_NODE":324.3041,"ARG_OF_PERICENTER":124.683,"MEAN_ANOMALY":235.5175,"EPHEMERIS_TYPE":0,"CLASSIFICATION_TYPE":"U","NORAD_CAT_ID":63238,"ELEMENT_SET_NO":999,"REV_AT_EPOCH":5480,"BSTAR":0.00069668191,"MEAN_MOTION_DOT":0.00019244,"MEAN_MOTION_DDOT":0}]
